{
  "type": "FeatureCollection",
  "features": [
    {
      "type": "Feature",
      "properties": {
        "norad_id": 34010,
        "name": "COSMOS 2251 DEB",
        "group": "cosmos-2251-debris",
        "lat": 19.836192049274718,
        "lon": -55.390820979196036,
        "alt_km": 512.6390869036923,
        "timestamp": "2025-12-05T09:41:19.525694+00:00",
        "meta_object_name": "COSMOS 2251 DEB",
        "meta_object_id": "1993-036GV",
        "meta_epoch": "2025-12-04T08:16:05.404800",
        "meta_mean_motion": 15.16471738,
        "meta_eccentricity": 0.0004403,
        "meta_inclination": 74,
        "meta_ra_of_asc_node": 300.8804,
        "meta_arg_of_pericenter": 56.5952,
        "meta_mean_anomaly": 303.5664,
        "meta_ephemeris_type": 0,
        "meta_classification_type": "U",
        "meta_norad_cat_id": 34010,
        "meta_element_set_no": 999,
        "meta_rev_at_epoch": 89158,
        "meta_bstar": 0.008856,
        "meta_mean_motion_dot": 0.00176726,
        "meta_mean_motion_ddot": 0,
        "tle_line1": "1 34010U 93036GV  25338.34450700  .00176726  00000+0  88560-2 0  9990",
        "tle_line2": "2 34010  74.0000 300.8804 0004403  56.5952 303.5664 15.16471738891588"
      },
      "geometry": {
        "type": "Point",
        "coordinates": [
          -55.390820979196036,
          19.836192049274718
        ]
      }
    },
    {
      "type": "Feature",
      "properties": {
        "norad_id": 34011,
        "name": "COSMOS 2251 DEB",
        "group": "cosmos-2251-debris",
        "lat": -2.5419946083819145,
        "lon": -16.966305362395467,
        "alt_km": 748.083452028065,
        "timestamp": "2025-12-05T09:41:19.525704+00:00",
        "meta_object_name": "COSMOS 2251 DEB",
        "meta_object_id": "1993-036GW",
        "meta_epoch": "2025-12-04T10:23:09.489408",
        "meta_mean_motion": 14.41708458,
        "meta_eccentricity": 0.0035219,
        "meta_inclination": 74.0144,
        "meta_ra_of_asc_node": 345.5636,
        "meta_arg_of_pericenter": 71.8792,
        "meta_mean_anomaly": 288.6195,
        "meta_ephemeris_type": 0,
        "meta_classification_type": "U",
        "meta_norad_cat_id": 34011,
        "meta_element_set_no": 999,
        "meta_rev_at_epoch": 87796,
        "meta_bstar": 0.0015576,
        "meta_mean_motion_dot": 5.095e-05,
        "meta_mean_motion_ddot": 0,
        "tle_line1": "1 34011U 93036GW  25338.43274872  .00005095  00000+0  15576-2 0  9992",
        "tle_line2": "2 34011  74.0144 345.5636 0035219  71.8792 288.6195 14.41708458877965"
      },
      "geometry": {
        "type": "Point",
        "coordinates": [
          -16.966305362395467,
          -2.5419946083819145
        ]
      }
    },
    {
      "type": "Feature",
      "properties": {
        "norad_id": 34014,
        "name": "COSMOS 2251 DEB",
        "group": "cosmos-2251-debris",
        "lat": -8.7182846335903,
        "lon": 117.5540561975554,
        "alt_km": 664.9188350803524,
        "timestamp": "2025-12-05T09:41:19.525714+00:00",
        "meta_object_name": "COSMOS 2251 DEB",
        "meta_object_id": "1993-036GZ",
        "meta_epoch": "2025-12-04T07:18:11.252160",
        "meta_mean_motion": 14.72964202,
        "meta_eccentricity": 0.0036764,
        "meta_inclination": 74.0173,
        "meta_ra_of_asc_node": 297.1782,
        "meta_arg_of_pericenter": 79.1608,
        "meta_mean_anomaly": 41.9942,
        "meta_ephemeris_type": 0,
        "meta_classification_type": "U",
        "meta_norad_cat_id": 34014,
        "meta_element_set_no": 999,
        "meta_rev_at_epoch": 89179,
        "meta_bstar": 0.0023991,
        "meta_mean_motion_dot": 0.00015567,
        "meta_mean_motion_ddot": 0,
        "tle_line1": "1 34014U 93036GZ  25338.30429690  .00015567  00000+0  23991-2 0  9996",
        "tle_line2": "2 34014  74.0173 297.1782 0036764  79.1608  41.9942 14.72964202891799"
      },
      "geometry": {
        "type": "Point",
        "coordinates": [
          117.5540561975554,
          -8.7182846335903
        ]
      }
    },
    {
      "type": "Feature",
      "properties": {
        "norad_id": 34015,
        "name": "COSMOS 2251 DEB",
        "group": "cosmos-2251-debris",
        "lat": -68.2472737725585,
        "lon": 127.54631160898914,
        "alt_km": 685.2224936819812,
        "timestamp": "2025-12-05T09:41:19.525724+00:00",
        "meta_object_name": "COSMOS 2251 DEB",
        "meta_object_id": "1993-036HA",
        "meta_epoch": "2025-12-04T16:15:47.772000",
        "meta_mean_motion": 14.60092366,
        "meta_eccentricity": 0.0021163,
        "meta_inclination": 74.0231,
        "meta_ra_of_asc_node": 174.8233,
        "meta_arg_of_pericenter": 272.1647,
        "meta_mean_anomaly": 157.8756,
        "meta_ephemeris_type": 0,
        "meta_classification_type": "U",
        "meta_norad_cat_id": 34015,
        "meta_element_set_no": 999,
        "meta_rev_at_epoch": 88413,
        "meta_bstar": 0.0028018,
        "meta_mean_motion_dot": 0.00013512,
        "meta_mean_motion_ddot": 0,
        "tle_line1": "1 34015U 93036HA  25338.67763625  .00013512  00000+0  28018-2 0  9999",
        "tle_line2": "2 34015  74.0231 174.8233 0021163 272.1647 157.8756 14.60092366884132"
      },
      "geometry": {
        "type": "Point",
        "coordinates": [
          127.54631160898914,
          -68.2472737725585
        ]
      }
    },
    {
      "type": "Feature",
      "properties": {
        "norad_id": 34018,
        "name": "COSMOS 2251 DEB",
        "group": "cosmos-2251-debris",
        "lat": -6.961358867867451,
        "lon": 102.50327777650365,
        "alt_km": 1128.2671402960068,
        "timestamp": "2025-12-05T09:41:19.525735+00:00",
        "meta_object_name": "COSMOS 2251 DEB",
        "meta_object_id": "1993-036HD",
        "meta_epoch": "2025-12-04T16:38:53.054304",
        "meta_mean_motion": 13.81053187,
        "meta_eccentricity": 0.0264223,
        "meta_inclination": 73.8769,
        "meta_ra_of_asc_node": 105.7301,
        "meta_arg_of_pericenter": 143.1332,
        "meta_mean_anomaly": 282.5362,
        "meta_ephemeris_type": 0,
        "meta_classification_type": "U",
        "meta_norad_cat_id": 34018,
        "meta_element_set_no": 999,
        "meta_rev_at_epoch": 84546,
        "meta_bstar": 0.0010705,
        "meta_mean_motion_dot": 1.452e-05,
        "meta_mean_motion_ddot": 0,
        "tle_line1": "1 34018U 93036HD  25338.69366961  .00001452  00000+0  10705-2 0  9990",
        "tle_line2": "2 34018  73.8769 105.7301 0264223 143.1332 282.5362 13.81053187845463"
      },
      "geometry": {
        "type": "Point",
        "coordinates": [
          102.50327777650365,
          -6.961358867867451
        ]
      }
    },
    {
      "type": "Feature",
      "properties": {
        "norad_id": 34019,
        "name": "COSMOS 2251 DEB",
        "group": "cosmos-2251-debris",
        "lat": 14.730009332471129,
        "lon": -120.10773726142423,
        "alt_km": 772.6892833547681,
        "timestamp": "2025-12-05T09:41:19.525746+00:00",
        "meta_object_name": "COSMOS 2251 DEB",
        "meta_object_id": "1993-036HE",
        "meta_epoch": "2025-12-04T16:44:50.969760",
        "meta_mean_motion": 14.33873182,
        "meta_eccentricity": 0.0062726,
        "meta_inclination": 73.9553,
        "meta_ra_of_asc_node": 65.5286,
        "meta_arg_of_pericenter": 247.9044,
        "meta_mean_anomaly": 235.0557,
        "meta_ephemeris_type": 0,
        "meta_classification_type": "U",
        "meta_norad_cat_id": 34019,
        "meta_element_set_no": 999,
        "meta_rev_at_epoch": 87405,
        "meta_bstar": 0.0020617,
        "meta_mean_motion_dot": 5.847e-05,
        "meta_mean_motion_ddot": 0,
        "tle_line1": "1 34019U 93036HE  25338.69781215  .00005847  00000+0  20617-2 0  9999",
        "tle_line2": "2 34019  73.9553  65.5286 0062726 247.9044 235.0557 14.33873182874057"
      },
      "geometry": {
        "type": "Point",
        "coordinates": [
          -120.10773726142423,
          14.730009332471129
        ]
      }
    },
    {
      "type": "Feature",
      "properties": {
        "norad_id": 34021,
        "name": "COSMOS 2251 DEB",
        "group": "cosmos-2251-debris",
        "lat": -20.94022502148813,
        "lon": -30.108164354312752,
        "alt_km": 729.9178114434153,
        "timestamp": "2025-12-05T09:41:19.525756+00:00",
        "meta_object_name": "COSMOS 2251 DEB",
        "meta_object_id": "1993-036HG",
        "meta_epoch": "2025-12-04T11:22:53.599008",
        "meta_mean_motion": 14.49901335,
        "meta_eccentricity": 0.0020746,
        "meta_inclination": 74.0346,
        "meta_ra_of_asc_node": 145.347,
        "meta_arg_of_pericenter": 290.1488,
        "meta_mean_anomaly": 102.2802,
        "meta_ephemeris_type": 0,
        "meta_classification_type": "U",
        "meta_norad_cat_id": 34021,
        "meta_element_set_no": 999,
        "meta_rev_at_epoch": 88510,
        "meta_bstar": 0.00082704,
        "meta_mean_motion_dot": 3.179e-05,
        "meta_mean_motion_ddot": 0,
        "tle_line1": "1 34021U 93036HG  25338.47423147  .00003179  00000+0  82704-3 0  9997",
        "tle_line2": "2 34021  74.0346 145.3470 0020746 290.1488 102.2802 14.49901335885107"
      },
      "geometry": {
        "type": "Point",
        "coordinates": [
          -30.108164354312752,
          -20.94022502148813
        ]
      }
    }
  ]
}